STARLINK-37176          
1 68615U 26073P   26106.92483364  .00189898  00000+0  97036-3 0  9998
2 68615  97.2851 304.5566 0001035  41.3932 318.7415 15.80824058  1573
