{
  "norad_id": 68615,
  "name": "STARLINK-37176",
  "history": [
    {
      "epoch": "2026-04-16T22:11:45.626496Z",
      "apogee_km": 328.80341526281063,
      "perigee_km": 327.414685830664,
      "latitude_deg": 5.298554067213317e-05,
      "longitude_deg": 126.55092688068771,
      "height_km": 330.76281582282155,
      "semi_major_axis_km": 6706.246050546737,
      "eccentricity": 0.00010354,
      "inclination_deg": 97.2851,
      "raan_deg": 304.5566,
      "arg_perigee_deg": 41.3932,
      "mean_anomaly_deg": 318.7415,
      "mean_motion_rev_day": 15.80824058
    }
  ]
}